{"type": "FeatureCollection", "features": [ {"type": "Feature", "properties": {"norad_id": 66712, "name": "TRANSPORTER-15 AY", "group": "last-30-days", "lat": -80.63451666086736, "lon": -167.06868362598354, "alt_km": 518.2053418714413, "timestamp": "2025-12-19T16:54:42.967286+00:00", "meta": {"OBJECT_NAME": "TRANSPORTER-15 AY", "OBJECT_ID": "2025-276AY", "EPOCH": "2025-12-19T03:05:36.814848", "MEAN_MOTION": 15.17870799, "ECCENTRICITY": 0.00024396, "INCLINATION": 97.4436, "RA_OF_ASC_NODE": 64.8049, "ARG_OF_PERICENTER": 233.9039, "MEAN_ANOMALY": 126.197, "EPHEMERIS_TYPE": 0, "CLASSIFICATION_TYPE": "U", "NORAD_CAT_ID": 66712, "ELEMENT_SET_NO": 999, "REV_AT_EPOCH": 309, "BSTAR": 0.00023375248, "MEAN_MOTION_DOT": 4.668e-05, "MEAN_MOTION_DDOT": 0}, "tle": {"line1": "1 66712U 25276AY  25353.12889832  .00004668  00000+0  23375-3 0  9999", "line2": "2 66712  97.4436  64.8049 0002439 233.9039 126.1970 15.17870799  3097"}}, "geometry": {"type": "Point", "coordinates": [-167.06868362598354, -80.63451666086736]}}, {"type": "Feature", "properties": {"norad_id": 66713, "name": "TRANSPORTER-15 AZ", "group": "last-30-days", "lat": -33.39061437218345, "lon": -119.60384702075227, "alt_km": 519.1771955565509, "timestamp": "2025-12-19T16:54:42.967296+00:00", "meta": {"OBJECT_NAME": "TRANSPORTER-15 AZ", "OBJECT_ID": "2025-276AZ", "EPOCH": "2025-12-18T17:48:47.755296", "MEAN_MOTION": 15.17225127, "ECCENTRICITY": 0.00033892, "INCLINATION": 97.441, "RA_OF_ASC_NODE": 64.393, "ARG_OF_PERICENTER": 274.2695, "MEAN_ANOMALY": 85.8152, "EPHEMERIS_TYPE": 0, "CLASSIFICATION_TYPE": "U", "NORAD_CAT_ID": 66713, "ELEMENT_SET_NO": 999, "REV_AT_EPOCH": 303, "BSTAR": 0.00025592584, "MEAN_MOTION_DOT": 5.024e-05, "MEAN_MOTION_DDOT": 0}, "tle": {"line1": "1 66713U 25276AZ  25352.74221939  .00005024  00000+0  25593-3 0  9996", "line2": "2 66713  97.4410  64.3930 0003389 274.2695  85.8152 15.17225127  3031"}}, "geometry": {"type": "Point", "coordinates": [-119.60384702075227, -33.39061437218345]}}, {"type": "Feature", "properties": {"norad_id": 66714, "name": "TRANSPORTER-15 BA", "group": "last-30-days", "lat": -55.906442492295845, "lon": -125.77884947660837, "alt_km": 519.0222352670526, "timestamp": "2025-12-19T16:54:42.967310+00:00", "meta": {"OBJECT_NAME": "TRANSPORTER-15 BA", "OBJECT_ID": "2025-276BA", "EPOCH": "2025-12-17T22:43:53.612256", "MEAN_MOTION": 15.17681017, "ECCENTRICITY": 0.00022837, "INCLINATION": 97.4438, "RA_OF_ASC_NODE": 63.6304, "ARG_OF_PERICENTER": 302.8957, "MEAN_ANOMALY": 57.2057, "EPHEMERIS_TYPE": 0, "CLASSIFICATION_TYPE": "U", "NORAD_CAT_ID": 66714, "ELEMENT_SET_NO": 999, "REV_AT_EPOCH": 291, "BSTAR": 0.00064609653, "MEAN_MOTION_DOT": 0.00012964, "MEAN_MOTION_DDOT": 0}, "tle": {"line1": "1 66714U 25276BA  25351.94714829  .00012964  00000+0  64610-3 0  9997", "line2": "2 66714  97.4438  63.6304 0002283 302.8957  57.2057 15.17681017  2917"}}, "geometry": {"type": "Point", "coordinates": [-125.77884947660837, -55.906442492295845]}}, {"type": "Feature", "properties": {"norad_id": 66715, "name": "TRANSPORTER-15 BB", "group": "last-30-days", "lat": -81.58114129526211, "lon": 127.3668545752231, "alt_km": 518.8782633316741, "timestamp": "2025-12-19T16:54:42.967361+00:00", "meta": {"OBJECT_NAME": "TRANSPORTER-15 BB", "OBJECT_ID": "2025-276BB", "EPOCH": "2025-12-19T04:38:04.878528", "MEAN_MOTION": 15.18034196, "ECCENTRICITY": 0.00016124, "INCLINATION": 97.4406, "RA_OF_ASC_NODE": 64.856, "ARG_OF_PERICENTER": 199.2164, "MEAN_ANOMALY": 160.9009, "EPHEMERIS_TYPE": 0, "CLASSIFICATION_TYPE": "U", "NORAD_CAT_ID": 66715, "ELEMENT_SET_NO": 999, "REV_AT_EPOCH": 341, "BSTAR": 0.00020147645, "MEAN_MOTION_DOT": 4.033e-05, "MEAN_MOTION_DDOT": 0}, "tle": {"line1": "1 66715U 25276BB  25353.19311202  .00004033  00000+0  20148-3 0  9991", "line2": "2 66715  97.4406  64.8560 0001612 199.2164 160.9009 15.18034196  3419"}}, "geometry": {"type": "Point", "coordinates": [127.3668545752231, -81.58114129526211]}}, {"type": "Feature", "properties": {"norad_id": 66716, "name": "TRANSPORTER-15 BC", "group": "last-30-days", "lat": -74.23240025111758, "lon": 92.96133630148663, "alt_km": 519.4872147469441, "timestamp": "2025-12-19T16:54:42.967374+00:00", "meta": {"OBJECT_NAME": "TRANSPORTER-15 BC", "OBJECT_ID": "2025-276BC", "EPOCH": "2025-12-19T04:35:29.707584", "MEAN_MOTION": 15.18144009, "ECCENTRICITY": 0.0001451, "INCLINATION": 97.4441, "RA_OF_ASC_NODE": 64.8713, "ARG_OF_PERICENTER": 150.0092, "MEAN_ANOMALY": 210.1225, "EPHEMERIS_TYPE": 0, "CLASSIFICATION_TYPE": "U", "NORAD_CAT_ID": 66716, "ELEMENT_SET_NO": 999, "REV_AT_EPOCH": 310, "BSTAR": 0.0002131999, "MEAN_MOTION_DOT": 4.285e-05, "MEAN_MOTION_DDOT": 0}, "tle": {"line1": "1 66716U 25276BC  25353.19131606  .00004285  00000+0  21320-3 0  9992", "line2": "2 66716  97.4441  64.8713 0001451 150.0092 210.1225 15.18144009  3104"}}, "geometry": {"type": "Point", "coordinates": [92.96133630148663, -74.23240025111758]}}, {"type": "Feature", "properties": {"norad_id": 66717, "name": "TRANSPORTER-15 BD", "group": "last-30-days", "lat": -65.90930567654051, "lon": 82.37656711654068, "alt_km": 519.0904622622438, "timestamp": "2025-12-19T16:54:42.967388+00:00", "meta": {"OBJECT_NAME": "TRANSPORTER-15 BD", "OBJECT_ID": "2025-276BD", "EPOCH": "2025-12-19T04:33:10.891296", "MEAN_MOTION": 15.18299215, "ECCENTRICITY": 0.00013588, "INCLINATION": 97.4428, "RA_OF_ASC_NODE": 64.8698, "ARG_OF_PERICENTER": 137.3865, "MEAN_ANOMALY": 222.7475, "EPHEMERIS_TYPE": 0, "CLASSIFICATION_TYPE": "U", "NORAD_CAT_ID": 66717, "ELEMENT_SET_NO": 999, "REV_AT_EPOCH": 235, "BSTAR": 0.0002303503, "MEAN_MOTION_DOT": 4.657e-05, "MEAN_MOTION_DDOT": 0}, "tle": {"line1": "1 66717U 25276BD  25353.18970939  .00004657  00000+0  23035-3 0  9990", "line2": "2 66717  97.4428  64.8698 0001358 137.3865 222.7475 15.18299215  2356"}}, "geometry": {"type": "Point", "coordinates": [82.37656711654068, -65.90930567654051]}}, {"type": "Feature", "properties": {"norad_id": 66718, "name": "TRANSPORTER-15 BE", "group": "last-30-days", "lat": -25.496693781968553, "lon": -118.23212397879801, "alt_km": 520.0422410183, "timestamp": "2025-12-19T16:54:42.967398+00:00", "meta": {"OBJECT_NAME": "TRANSPORTER-15 BE", "OBJECT_ID": "2025-276BE", "EPOCH": "2025-12-19T03:20:38.364288", "MEAN_MOTION": 15.17065453, "ECCENTRICITY": 0.00030876, "INCLINATION": 97.4435, "RA_OF_ASC_NODE": 64.7874, "ARG_OF_PERICENTER": 287.4991, "MEAN_ANOMALY": 72.5905, "EPHEMERIS_TYPE": 0, "CLASSIFICATION_TYPE": "U", "NORAD_CAT_ID": 66718, "ELEMENT_SET_NO": 999, "REV_AT_EPOCH": 309, "BSTAR": 0.00022160705, "MEAN_MOTION_DOT": 4.321e-05, "MEAN_MOTION_DDOT": 0}, "tle": {"line1": "1 66718U 25276BE  25353.13933292  .00004321  00000+0  22161-3 0  9994", "line2": "2 66718  97.4435  64.7874 0003087 287.4991  72.5905 15.17065453  3093"}}, "geometry": {"type": "Point", "coordinates": [-118.23212397879801, -25.496693781968553]}}, {"type": "Feature", "properties": {"norad_id": 66719, "name": "TRANSPORTER-15 BF", "group": "last-30-days", "lat": -33.344821081049595, "lon": -119.58592199840005, "alt_km": 519.3570168133629, "timestamp": "2025-12-19T16:54:42.967410+00:00", "meta": {"OBJECT_NAME": "TRANSPORTER-15 BF", "OBJECT_ID": "2025-276BF", "EPOCH": "2025-12-19T03:18:36.218016", "MEAN_MOTION": 15.17176146, "ECCENTRICITY": 0.00031602, "INCLINATION": 97.4451, "RA_OF_ASC_NODE": 64.7934, "ARG_OF_PERICENTER": 270.7714, "MEAN_ANOMALY": 89.3158, "EPHEMERIS_TYPE": 0, "CLASSIFICATION_TYPE": "U", "NORAD_CAT_ID": 66719, "ELEMENT_SET_NO": 999, "REV_AT_EPOCH": 309, "BSTAR": 0.00022443496, "MEAN_MOTION_DOT": 4.391e-05, "MEAN_MOTION_DDOT": 0}, "tle": {"line1": "1 66719U 25276BF  25353.13791919  .00004391  00000+0  22443-3 0  9993", "line2": "2 66719  97.4451  64.7934 0003160 270.7714  89.3158 15.17176146  3097"}}, "geometry": {"type": "Point", "coordinates": [-119.58592199840005, -33.344821081049595]}}, {"type": "Feature", "properties": {"norad_id": 66720, "name": "TRANSPORTER-15 BG", "group": "last-30-days", "lat": -81.3777927621619, "lon": 124.97500180984214, "alt_km": 518.6533993065195, "timestamp": "2025-12-19T16:54:42.967421+00:00", "meta": {"OBJECT_NAME": "TRANSPORTER-15 BG", "OBJECT_ID": "2025-276BG", "EPOCH": "2025-12-18T17:33:30.965760", "MEAN_MOTION": 15.18012144, "ECCENTRICITY": 0.00023448, "INCLINATION": 97.4457, "RA_OF_ASC_NODE": 64.4217, "ARG_OF_PERICENTER": 207.0111, "MEAN_ANOMALY": 153.1002, "EPHEMERIS_TYPE": 0, "CLASSIFICATION_TYPE": "U", "NORAD_CAT_ID": 66720, "ELEMENT_SET_NO": 999, "REV_AT_EPOCH": 303, "BSTAR": 0.00024087058, "MEAN_MOTION_DOT": 4.832e-05, "MEAN_MOTION_DDOT": 0}, "tle": {"line1": "1 66720U 25276BG  25352.73160840  .00004832  00000+0  24087-3 0  9999", "line2": "2 66720  97.4457  64.4217 0002344 207.0111 153.1002 15.18012144  3033"}}, "geometry": {"type": "Point", "coordinates": [124.97500180984214, -81.3777927621619]}}, {"type": "Feature", "properties": {"norad_id": 66721, "name": "TRANSPORTER-15 BH", "group": "last-30-days", "lat": -28.02554412389511, "lon": -118.65811392982035, "alt_km": 520.6850645185441, "timestamp": "2025-12-19T16:54:42.967431+00:00", "meta": {"OBJECT_NAME": "TRANSPORTER-15 BH", "OBJECT_ID": "2025-276BH", "EPOCH": "2025-12-17T18:05:25.919808", "MEAN_MOTION": 15.17086968, "ECCENTRICITY": 0.0002651, "INCLINATION": 97.4398, "RA_OF_ASC_NODE": 63.4152, "ARG_OF_PERICENTER": 311.0697, "MEAN_ANOMALY": 49.0307, "EPHEMERIS_TYPE": 0, "CLASSIFICATION_TYPE": "U", "NORAD_CAT_ID": 66721, "ELEMENT_SET_NO": 999, "REV_AT_EPOCH": 288, "BSTAR": 0.00023788453, "MEAN_MOTION_DOT": 4.646e-05, "MEAN_MOTION_DDOT": 0}, "tle": {"line1": "1 66721U 25276BH  25351.75377222  .00004646  00000+0  23788-3 0  9995", "line2": "2 66721  97.4398  63.4152 0002651 311.0697  49.0307 15.17086968  2888"}}, "geometry": {"type": "Point", "coordinates": [-118.65811392982035, -28.02554412389511]}}]}